[
    {
        "CCSDS_OMM_VERS": "3.0",
        "COMMENT": "GENERATED VIA SPACE-TRACK.ORG API",
        "CREATION_DATE": "2025-03-02T22:56:18",
        "ORIGINATOR": "18 SPCS",
        "OBJECT_NAME": "BEIDOU 3M10",
        "OBJECT_ID": "2018-062B",
        "CENTER_NAME": "EARTH",
        "REF_FRAME": "TEME",
        "TIME_SYSTEM": "UTC",
        "MEAN_ELEMENT_THEORY": "SGP4",
        "EPOCH": "2025-03-02T12:34:58.656000",
        "MEAN_MOTION": "1.86229168",
        "ECCENTRICITY": "0.00060860",
        "INCLINATION": "54.1090",
        "RA_OF_ASC_NODE": "198.3296",
        "ARG_OF_PERICENTER": "42.5261",
        "MEAN_ANOMALY": "317.4769",
        "EPHEMERIS_TYPE": "0",
        "CLASSIFICATION_TYPE": "U",
        "NORAD_CAT_ID": "43582",
        "ELEMENT_SET_NO": "999",
        "REV_AT_EPOCH": "4485",
        "BSTAR": "0.00000000000000",
        "MEAN_MOTION_DOT": "0.00000044",
        "MEAN_MOTION_DDOT": "0.0000000000000",
        "SEMIMAJOR_AXIS": "27906.372",
        "PERIOD": "773.241",
        "APOAPSIS": "21545.220",
        "PERIAPSIS": "21511.253",
        "OBJECT_TYPE": "PAYLOAD",
        "RCS_SIZE": "LARGE",
        "COUNTRY_CODE": "PRC",
        "LAUNCH_DATE": "2018-07-29",
        "SITE": "XSC",
        "DECAY_DATE": null,
        "FILE": "4657356",
        "GP_ID": "282105953",
        "TLE_LINE0": "0 BEIDOU 3M10",
        "TLE_LINE1": "1 43582U 18062B   25061.52429000  .00000044  00000-0  00000+0 0  9992",
        "TLE_LINE2": "2 43582  54.1090 198.3296 0006086  42.5261 317.4769  1.86229168 44852"
    }
]